{
    "links": {
        "self": "http://www.neowsapp.com/rest/v1/neo/3114106?api_key=iIulBulltgU6a56xZRHN4H3l9WmuAYTsLGpBGhQ2"
    },
    "id": "3114106",
    "neo_reference_id": "3114106",
    "name": "(2002 EC)",
    "designation": "2002 EC",
    "nasa_jpl_url": "http://ssd.jpl.nasa.gov/sbdb.cgi?sstr=3114106",
    "absolute_magnitude_h": 23.4,
    "estimated_diameter": {
        "kilometers": {
            "estimated_diameter_min": 0.0555334912,
            "estimated_diameter_max": 0.1241766613
        },
        "meters": {
            "estimated_diameter_min": 55.5334911581,
            "estimated_diameter_max": 124.1766612574
        },
        "miles": {
            "estimated_diameter_min": 0.0345069009,
            "estimated_diameter_max": 0.0771597762
        },
        "feet": {
            "estimated_diameter_min": 182.1964991311,
            "estimated_diameter_max": 407.4037573197
        }
    },
    "is_potentially_hazardous_asteroid": false,
    "close_approach_data": [
        {
            "close_approach_date": "2002-03-04",
            "close_approach_date_full": "2002-Mar-04 16:15",
            "epoch_date_close_approach": 1015258500000,
            "relative_velocity": {
                "kilometers_per_second": "6.5920175865",
                "kilometers_per_hour": "23731.2633113703",
                "miles_per_hour": "14745.6841392234"
            },
            "miss_distance": {
                "astronomical": "0.0527460106",
                "lunar": "20.5181981234",
                "kilometers": "7890690.836757422",
                "miles": "4903047.9286075436"
            },
            "orbiting_body": "Earth"
        },
        {
            "close_approach_date": "2020-12-30",
            "close_approach_date_full": "2020-Dec-30 09:16",
            "epoch_date_close_approach": 1609319760000,
            "relative_velocity": {
                "kilometers_per_second": "20.4578804271",
                "kilometers_per_hour": "73648.3695375989",
                "miles_per_hour": "45762.2327274041"
            },
            "miss_distance": {
                "astronomical": "0.4842651671",
                "lunar": "188.3791500019",
                "kilometers": "72445037.513354077",
                "miles": "45015258.9255051826"
            },
            "orbiting_body": "Earth"
        },
        {
            "close_approach_date": "2163-04-05",
            "close_approach_date_full": "2163-Apr-05 02:18",
            "epoch_date_close_approach": 6098638680000,
            "relative_velocity": {
                "kilometers_per_second": "13.1457452952",
                "kilometers_per_hour": "47324.6830628932",
                "miles_per_hour": "29405.7176509405"
            },
            "miss_distance": {
                "astronomical": "0.2407305565",
                "lunar": "93.6441864785",
                "kilometers": "36012778.496314655",
                "miles": "22377302.908286039"
            },
            "orbiting_body": "Earth"
        }
    ],
    "orbital_data": {
        "orbit_id": "28",
        "orbit_determination_date": "2017-04-06 09:15:24",
        "first_observation_date": "2002-03-04",
        "last_observation_date": "2002-04-23",
        "data_arc_in_days": 50,
        "observations_used": 163,
        "orbit_uncertainty": "7",
        "minimum_orbit_intersection": ".044007",
        "jupiter_tisserand_invariant": "3.519",
        "epoch_osculation": "2459000.5",
        "eccentricity": ".5194895097917551",
        "semi_major_axis": "2.149073761009692",
        "inclination": ".9173918683003485",
        "ascending_node_longitude": "349.7226095124518",
        "orbital_period": "1150.735230294946",
        "perihelion_distance": "1.032652486396443",
        "perihelion_argument": "160.6669898197055",
        "aphelion_distance": "3.26549503562294",
        "perihelion_time": "2459235.584826628857",
        "mean_anomaly": "286.4552476031373",
        "mean_motion": ".3128434678303261",
        "equinox": "J2000",
        "orbit_class": {
            "orbit_class_type": "AMO",
            "orbit_class_description": "Near-Earth asteroid orbits similar to that of 1221 Amor",
            "orbit_class_range": "1.017 AU < q (perihelion) < 1.3 AU"
        }
    },
    "is_sentry_object": false
}